{
  "links" : {
    "next" : "https://api.nasa.gov/neo/rest/v1/feed?start_date=2011-05-23&end_date=2011-05-23&detailed=true&api_key=t0TVs3DtDT2H8Oy2Zy8m2eVrNsAVKAexjcZXUckd",
    "prev" : "https://api.nasa.gov/neo/rest/v1/feed?start_date=2011-05-21&end_date=2011-05-21&detailed=true&api_key=t0TVs3DtDT2H8Oy2Zy8m2eVrNsAVKAexjcZXUckd",
    "self" : "https://api.nasa.gov/neo/rest/v1/feed?start_date=2011-05-22&end_date=2011-05-22&detailed=true&api_key=t0TVs3DtDT2H8Oy2Zy8m2eVrNsAVKAexjcZXUckd"
  },
  "element_count" : 8,
  "near_earth_objects" : {
    "2011-05-22" : [ {
      "links" : {
        "self" : "https://api.nasa.gov/neo/rest/v1/neo/3611400?api_key=t0TVs3DtDT2H8Oy2Zy8m2eVrNsAVKAexjcZXUckd"
      },
      "neo_reference_id" : "3611400",
      "name" : "(2012 UC)",
      "nasa_jpl_url" : "http://ssd.jpl.nasa.gov/sbdb.cgi?sstr=3611400",
      "absolute_magnitude_h" : 25.0,
      "estimated_diameter" : {
        "kilometers" : {
          "estimated_diameter_min" : 0.02658,
          "estimated_diameter_max" : 0.0594346868
        },
        "meters" : {
          "estimated_diameter_min" : 26.58,
          "estimated_diameter_max" : 59.4346868419
        },
        "miles" : {
          "estimated_diameter_min" : 0.0165160412,
          "estimated_diameter_max" : 0.0369309908
        },
        "feet" : {
          "estimated_diameter_min" : 87.2047272,
          "estimated_diameter_max" : 194.9956979785
        }
      },
      "is_potentially_hazardous_asteroid" : false,
      "close_approach_data" : [ {
        "close_approach_date" : "2011-05-22",
        "epoch_date_close_approach" : 1306047600000,
        "relative_velocity" : {
          "kilometers_per_second" : "6.7709630155",
          "kilometers_per_hour" : "24375.4668557761",
          "miles_per_hour" : "15145.9671693571"
        },
        "miss_distance" : {
          "astronomical" : "0.2192651883",
          "lunar" : "85.2941589355",
          "kilometers" : "32801606",
          "miles" : "20381974"
        },
        "orbiting_body" : "Earth"
      } ],
      "orbital_data" : {
        "orbit_id" : "5",
        "orbit_determination_date" : "2017-04-06 08:48:30",
        "orbit_uncertainty" : "6",
        "minimum_orbit_intersection" : ".0187898",
        "jupiter_tisserand_invariant" : "6.384",
        "epoch_osculation" : "2458000.5",
        "eccentricity" : ".326860711970322",
        "semi_major_axis" : ".9302337444493961",
        "inclination" : "8.333753551706272",
        "ascending_node_longitude" : "20.49127086505545",
        "orbital_period" : "327.7076361182716",
        "perihelion_distance" : ".626176880439848",
        "perihelion_argument" : "128.46312989278",
        "aphelion_distance" : "1.234290608458944",
        "perihelion_time" : "2457939.712985574642",
        "mean_anomaly" : "66.77697673554127",
        "mean_motion" : "1.098540163006986",
        "equinox" : "J2000"
      }
    }, {
      "links" : {
        "self" : "https://api.nasa.gov/neo/rest/v1/neo/3655366?api_key=t0TVs3DtDT2H8Oy2Zy8m2eVrNsAVKAexjcZXUckd"
      },
      "neo_reference_id" : "3655366",
      "name" : "(2013 YD)",
      "nasa_jpl_url" : "http://ssd.jpl.nasa.gov/sbdb.cgi?sstr=3655366",
      "absolute_magnitude_h" : 23.6,
      "estimated_diameter" : {
        "kilometers" : {
          "estimated_diameter_min" : 0.0506471459,
          "estimated_diameter_max" : 0.1132504611
        },
        "meters" : {
          "estimated_diameter_min" : 50.6471458835,
          "estimated_diameter_max" : 113.2504610618
        },
        "miles" : {
          "estimated_diameter_min" : 0.0314706677,
          "estimated_diameter_max" : 0.0703705522
        },
        "feet" : {
          "estimated_diameter_min" : 166.1651821003,
          "estimated_diameter_max" : 371.5566426699
        }
      },
      "is_potentially_hazardous_asteroid" : false,
      "close_approach_data" : [ {
        "close_approach_date" : "2011-05-22",
        "epoch_date_close_approach" : 1306047600000,
        "relative_velocity" : {
          "kilometers_per_second" : "11.0459958118",
          "kilometers_per_hour" : "39765.584922399",
          "miles_per_hour" : "24708.7880313651"
        },
        "miss_distance" : {
          "astronomical" : "0.1211814965",
          "lunar" : "47.1396026611",
          "kilometers" : "18128494",
          "miles" : "11264524"
        },
        "orbiting_body" : "Earth"
      } ],
      "orbital_data" : {
        "orbit_id" : "12",
        "orbit_determination_date" : "2017-04-06 08:43:15",
        "orbit_uncertainty" : "7",
        "minimum_orbit_intersection" : ".00578825",
        "jupiter_tisserand_invariant" : "5.646",
        "epoch_osculation" : "2458000.5",
        "eccentricity" : ".4270923051737235",
        "semi_major_axis" : "1.077401277730648",
        "inclination" : "7.278283507077587",
        "ascending_node_longitude" : "268.5649271820785",
        "orbital_period" : "408.4742238686583",
        "perihelion_distance" : ".6172514824275506",
        "perihelion_argument" : "73.1782507520561",
        "aphelion_distance" : "1.537551073033746",
        "perihelion_time" : "2457808.381568270437",
        "mean_anomaly" : "169.3194610117713",
        "mean_motion" : ".8813285611768619",
        "equinox" : "J2000"
      }
    }, {
      "links" : {
        "self" : "https://api.nasa.gov/neo/rest/v1/neo/3738910?api_key=t0TVs3DtDT2H8Oy2Zy8m2eVrNsAVKAexjcZXUckd"
      },
      "neo_reference_id" : "3738910",
      "name" : "(2015 YZ)",
      "nasa_jpl_url" : "http://ssd.jpl.nasa.gov/sbdb.cgi?sstr=3738910",
      "absolute_magnitude_h" : 22.8,
      "estimated_diameter" : {
        "kilometers" : {
          "estimated_diameter_min" : 0.0732073989,
          "estimated_diameter_max" : 0.1636967205
        },
        "meters" : {
          "estimated_diameter_min" : 73.2073989347,
          "estimated_diameter_max" : 163.696720474
        },
        "miles" : {
          "estimated_diameter_min" : 0.0454889547,
          "estimated_diameter_max" : 0.1017163949
        },
        "feet" : {
          "estimated_diameter_min" : 240.181762721,
          "estimated_diameter_max" : 537.0627483999
        }
      },
      "is_potentially_hazardous_asteroid" : false,
      "close_approach_data" : [ {
        "close_approach_date" : "2011-05-22",
        "epoch_date_close_approach" : 1306047600000,
        "relative_velocity" : {
          "kilometers_per_second" : "5.3170417946",
          "kilometers_per_hour" : "19141.3504604682",
          "miles_per_hour" : "11893.6907902837"
        },
        "miss_distance" : {
          "astronomical" : "0.459699243",
          "lunar" : "178.8229980469",
          "kilometers" : "68770032",
          "miles" : "42731716"
        },
        "orbiting_body" : "Earth"
      } ],
      "orbital_data" : {
        "orbit_id" : "12",
        "orbit_determination_date" : "2017-04-06 08:29:42",
        "orbit_uncertainty" : "5",
        "minimum_orbit_intersection" : ".100626",
        "jupiter_tisserand_invariant" : "4.653",
        "epoch_osculation" : "2458000.5",
        "eccentricity" : ".2426803193508345",
        "semi_major_axis" : "1.430880923803434",
        "inclination" : "2.367673776378217",
        "ascending_node_longitude" : "3.239206842470089",
        "orbital_period" : "625.1779723070911",
        "perihelion_distance" : "1.083634284261799",
        "perihelion_argument" : "140.7131434001219",
        "aphelion_distance" : "1.778127563345068",
        "perihelion_time" : "2458069.999676666290",
        "mean_anomaly" : "319.9795822819322",
        "mean_motion" : ".575836027413912",
        "equinox" : "J2000"
      }
    } ]
  }
}